NORAD_CAT_ID,OBJECT_NAME,OBJECT_TYPE,EPOCH,MEAN_MOTION,ECCENTRICITY,INCLINATION,RA_OF_ASC_NODE,ARG_OF_PERICENTER,MEAN_ANOMALY,BSTAR,MEAN_MOTION_DOT,MEAN_MOTION_DDOT,TLE_LINE0,TLE_LINE1,TLE_LINE2,SEMIMAJOR_AXIS,PERIOD,APOGEE,PERIGEE,DECAYED
52682.0,STARLINK-4017,PAYLOAD,2023-06-02 20:45:33,15.08844945,0.0001138,53.2172,1.8871,82.1803,277.9319,7.1697e-05,8.54e-06,0.0,0 STARLINK-4017,1 52682U 22053AC  23153.86497334  .00000854  00000-0  71697-4 0  9994,2 52682  53.2172   1.8871 0001138  82.1803 277.9319 15.08844945 58554,6917.865,95.437,540.518,538.943,0.0
52682.0,STARLINK-4017,PAYLOAD,2023-06-03 06:17:52,15.0884252,0.000113,53.217,0.1032,80.62,279.492,5.6936e-05,6.18e-06,0.0,0 STARLINK-4017,1 52682U 22053AC  23154.26241459  .00000618  00000-0  56936-4 0  9991,2 52682  53.2170   0.1032 0001130  80.6200 279.4920 15.08842520 58203,6917.873,95.437,540.519,538.956,0.0
52682.0,STARLINK-4017,PAYLOAD,2023-06-03 14:14:48,15.08838723,0.000115,53.2162,358.6174,82.9665,277.1458,9.9316e-05,1.293e-05,0.0,0 STARLINK-4017,1 52682U 22053AC  23154.59361730  .00001293  00000-0  99316-4 0  9991,2 52682  53.2162 358.6174 0001150  82.9665 277.1458 15.08838723 58665,6917.884,95.438,540.545,538.954,0.0
52682.0,STARLINK-4017,PAYLOAD,2023-06-03 20:36:20,15.08843559,0.0001177,53.2163,357.4279,82.8237,277.2889,0.00014833,2.074e-05,0.0,0 STARLINK-4017,1 52682U 22053AC  23154.85857468  .00002074  00000-0  14833-3 0  9996,2 52682  53.2163 357.4279 0001177  82.8237 277.2889 15.08843559 58709,6917.87,95.437,540.549,538.92,0.0
52682.0,STARLINK-4017,PAYLOAD,2023-06-04 06:08:39,15.08838368,0.0001161,53.2165,355.6441,86.2619,273.8506,0.0001264,1.724e-05,0.0,0 STARLINK-4017,1 52682U 22053AC  23155.25601747  .00001724  00000-0  12640-3 0  9993,2 52682  53.2165 355.6441 0001161  86.2619 273.8506 15.08838368 58358,6917.885,95.438,540.554,538.947,0.0
52682.0,STARLINK-4017,PAYLOAD,2023-06-04 12:30:12,15.0883305,0.0001149,53.2165,354.4547,84.4304,275.682,0.0001376,1.902e-05,0.0,0 STARLINK-4017,1 52682U 22053AC  23155.52098081  .00001902  00000-0  13760-3 0  9996,2 52682  53.2165 354.4547 0001149  84.4304 275.6820 15.08833050 58801,6917.902,95.438,540.561,538.972,0.0
52682.0,STARLINK-4017,PAYLOAD,2023-06-04 20:27:08,15.0884003,0.0001154,53.2179,352.9686,79.7828,280.3295,0.00010712,1.417e-05,0.0,0 STARLINK-4017,1 52682U 22053AC  23155.85217842  .00001417  00000-0  10712-3 0  9995,2 52682  53.2179 352.9686 0001154  79.7828 280.3295 15.08840030 58857,6917.88,95.438,540.544,538.947,0.0
52682.0,STARLINK-4017,PAYLOAD,2023-06-05 05:59:27,15.08838603,0.0001166,53.2184,351.1841,88.8754,271.2372,4.8059e-05,4.77e-06,0.0,0 STARLINK-4017,1 52682U 22053AC  23156.24962028  .00000477  00000-0  48059-4 0  9993,2 52682  53.2184 351.1841 0001166  88.8754 271.2372 15.08838603 58914,6917.885,95.438,540.556,538.943,0.0
52682.0,STARLINK-4017,PAYLOAD,2023-06-05 21:53:18,15.0884411,0.0001361,53.2186,348.2119,91.7109,268.4039,4.3605e-05,4.06e-06,0.0,0 STARLINK-4017,1 52682U 22053AC  23156.91201759  .00000406  00000-0  43605-4 0  9998,2 52682  53.2186 348.2119 0001361  91.7109 268.4039 15.08844110 59015,6917.868,95.437,540.674,538.791,0.0
52682.0,STARLINK-4017,PAYLOAD,2023-06-05 23:28:41,15.08845211,0.0001177,53.2183,347.913,89.869,270.2437,8.4992e-05,1.065e-05,0.0,0 STARLINK-4017,1 52682U 22053AC  23156.97825568  .00001065  00000-0  84992-4 0  9990,2 52682  53.2183 347.9130 0001177  89.8690 270.2437 15.08845211 58610,6917.864,95.437,540.544,538.915,0.0
52682.0,STARLINK-4017,PAYLOAD,2023-06-06 12:11:46,15.08837951,0.0001185,53.2185,345.536,97.414,262.6987,7.8413e-05,9.6e-06,0.0,0 STARLINK-4017,1 52682U 22053AC  23157.50818096  .00000960  00000-0  78413-4 0  9992,2 52682  53.2185 345.5360 0001185  97.4140 262.6987 15.08837951 59107,6917.887,95.438,540.571,538.932,0.0
52682.0,STARLINK-4017,PAYLOAD,2023-06-06 15:22:33,15.08837686,0.000114,53.2181,344.9392,90.8694,269.2429,8.4101e-05,1.051e-05,0.0,0 STARLINK-4017,1 52682U 22053AC  23157.64066174  .00001051  00000-0  84101-4 0  9992,2 52682  53.2181 344.9392 0001140  90.8694 269.2429 15.08837686 58718,6917.887,95.438,540.541,538.964,0.0
52682.0,STARLINK-4017,PAYLOAD,2023-06-06 20:08:42,15.0884472,0.0001138,53.2181,344.0466,88.0208,272.0914,0.00010153,1.329e-05,0.0,0 STARLINK-4017,1 52682U 22053AC  23157.83937690  .00001329  00000-0  10153-3 0  9996,2 52682  53.2181 344.0466 0001138  88.0208 272.0914 15.08844720 58749,6917.866,95.437,540.518,538.944,0.0
52682.0,STARLINK-4017,PAYLOAD,2023-06-07 05:41:01,15.08843636,0.0001166,53.2186,342.2633,85.7968,274.3157,6.3731e-05,7.27e-06,0.0,0 STARLINK-4017,1 52682U 22053AC  23158.23681835  .00000727  00000-0  63731-4 0  9990,2 52682  53.2186 342.2633 0001166  85.7968 274.3157 15.08843636 59210,6917.869,95.437,540.541,538.928,0.0
52682.0,STARLINK-4017,PAYLOAD,2023-06-07 18:24:06,15.08844053,0.0001197,53.218,339.8836,89.7666,270.3463,0.00014082,1.954e-05,0.0,0 STARLINK-4017,1 52682U 22053AC  23158.76673716  .00001954  00000-0  14082-3 0  9994,2 52682  53.2180 339.8836 0001197  89.7666 270.3463 15.08844053 59292,6917.868,95.437,540.561,538.905,0.0
52682.0,STARLINK-4017,PAYLOAD,2023-06-08 18:14:53,15.0884677,0.0001054,53.2179,335.423,83.9232,276.188,9.8564e-05,1.281e-05,0.0,0 STARLINK-4017,1 52682U 22053AC  23159.76033819  .00001281  00000-0  98564-4 0  9990,2 52682  53.2179 335.4230 0001054  83.9232 276.1880 15.08846770 59034,6917.86,95.437,540.454,538.996,0.0
52682.0,STARLINK-4017,PAYLOAD,2023-06-09 18:05:40,15.088454,9.73e-05,53.2168,330.9626,81.3357,278.7745,0.00017919,2.566e-05,0.0,0 STARLINK-4017,1 52682U 22053AC  23160.75393927  .00002566  00000-0  17919-3 0  9991,2 52682  53.2168 330.9626 0000973  81.3357 278.7745 15.08845400 59183,6917.864,95.437,540.402,539.056,0.0
52682.0,STARLINK-4017,PAYLOAD,2023-06-09 21:16:26,15.08848203,0.0001029,53.2172,330.3671,85.1302,274.9808,0.00028085,4.186e-05,0.0,0 STARLINK-4017,1 52682U 22053AC  23160.88641778  .00004186  00000-0  28085-3 0  9991,2 52682  53.2172 330.3671 0001029  85.1302 274.9808 15.08848203 59617,6917.855,95.437,540.432,539.008,0.0
52682.0,STARLINK-4017,PAYLOAD,2023-06-10 13:10:18,15.08840832,0.0001134,53.2137,327.3915,91.7054,268.4068,2.9827e-05,1.87e-06,0.0,0 STARLINK-4017,1 52682U 22053AC  23161.54882157  .00000187  00000-0  29827-4 0  9996,2 52682  53.2137 327.3915 0001134  91.7054 268.4068 15.08840832 59716,6917.878,95.438,540.527,538.958,0.0
52682.0,STARLINK-4017,PAYLOAD,2023-06-10 14:45:41,15.08842405,0.0001297,53.2169,327.0954,107.6073,252.5061,4.4176e-05,4.15e-06,0.0,0 STARLINK-4017,1 52682U 22053AC  23161.61506016  .00000415  00000-0  44176-4 0  9999,2 52682  53.2169 327.0954 0001297 107.6073 252.5061 15.08842405 59725,6917.873,95.437,540.635,538.841,0.0
52682.0,STARLINK-4017,PAYLOAD,2023-06-11 13:01:05,15.0883624,9.73e-05,53.2169,322.9323,96.5824,263.5279,-5.6427e-05,-1.186e-05,0.0,0 STARLINK-4017,1 52682U 22053AC  23162.54242277 -.00001186  00000-0 -56427-4 0  9998,2 52682  53.2169 322.9323 0000973  96.5824 263.5279 15.08836240 59867,6917.892,95.438,540.43,539.084,0.0
52682.0,STARLINK-4017,PAYLOAD,2023-06-11 19:22:37,15.08846356,9.99e-05,53.2175,321.7448,91.3416,268.7691,5.1029e-05,5.25e-06,0.0,0 STARLINK-4017,1 52682U 22053AC  23162.80737947  .00000525  00000-0  51029-4 0  9997,2 52682  53.2175 321.7448 0000999  91.3416 268.7691 15.08846356 59906,6917.861,95.437,540.417,539.035,0.0
52682.0,STARLINK-4017,PAYLOAD,2023-06-12 03:19:33,15.08843158,0.0001028,53.2174,320.2588,96.3537,263.7572,2.4406e-05,1.01e-06,0.0,0 STARLINK-4017,1 52682U 22053AC  23163.13857896  .00000101  00000-0  24406-4 0  9999,2 52682  53.2174 320.2588 0001028  96.3537 263.7572 15.08843158 59547,6917.871,95.437,540.447,539.025,0.0
52682.0,STARLINK-4017,PAYLOAD,2023-06-12 20:48:48,15.08839995,0.0001016,53.2175,316.988,102.0389,258.0717,7.3577e-05,8.83e-06,0.0,0 STARLINK-4017,1 52682U 22053AC  23163.86722269  .00000883  00000-0  73577-4 0  9994,2 52682  53.2175 316.9880 0001016 102.0389 258.0717 15.08839995 60063,6917.88,95.438,540.448,539.043,0.0
52682.0,STARLINK-4017,PAYLOAD,2023-06-13 03:10:20,15.08836499,0.0001417,53.2187,315.795,86.9341,273.1814,-1.0748e-05,-4.59e-06,0.0,0 STARLINK-4017,1 52682U 22053AC  23164.13218677 -.00000459  00000-0 -10748-4 0  9990,2 52682  53.2187 315.7950 0001417  86.9341 273.1814 15.08836499 59693,6917.891,95.438,540.736,538.776,0.0
52682.0,STARLINK-4017,PAYLOAD,2023-06-14 09:22:40,15.08838114,0.0001178,53.2174,310.1485,85.0901,275.0226,0.00010336,1.357e-05,0.0,0 STARLINK-4017,1 52682U 22053AC  23165.39074871  .00001357  00000-0  10336-3 0  9993,2 52682  53.2174 310.1485 0001178  85.0901 275.0226 15.08838114 59882,6917.886,95.438,540.566,538.936,0.0
52682.0,STARLINK-4017,PAYLOAD,2023-06-14 18:54:59,15.08844704,9.87e-05,53.2173,308.3638,101.442,258.6683,7.7901e-05,9.52e-06,0.0,0 STARLINK-4017,1 52682U 22053AC  23165.78818541  .00000952  00000-0  77901-4 0  9998,2 52682  53.2173 308.3638 0000987 101.4420 258.6683 15.08844704 60356,6917.866,95.437,540.414,539.048,0.0
52682.0,STARLINK-4017,PAYLOAD,2023-06-15 09:13:27,15.08837515,9.28e-05,53.217,305.6873,89.7676,270.3422,0.00011719,1.578e-05,0.0,0 STARLINK-4017,1 52682U 22053AC  23166.38434955  .00001578  00000-0  11719-3 0  9997,2 52682  53.2170 305.6873 0000928  89.7676 270.3422 15.08837515 60444,6917.888,95.438,540.395,539.111,0.0
52682.0,STARLINK-4017,PAYLOAD,2023-06-15 15:35:00,15.08843953,0.0001005,53.2173,304.4985,90.5295,269.5812,6.186e-05,6.97e-06,0.0,0 STARLINK-4017,1 52682U 22053AC  23166.64930756  .00000697  00000-0  61860-4 0  9990,2 52682  53.2173 304.4985 0001005  90.5295 269.5812 15.08843953 60077,6917.868,95.437,540.429,539.038,0.0
52682.0,STARLINK-4017,PAYLOAD,2023-06-16 12:15:00,15.08849474,0.0001091,53.2159,300.6324,79.2527,280.8588,0.00018748,2.698e-05,0.0,0 STARLINK-4017,1 52682U 22053AC  23167.51042289  .00002698  00000-0  18748-3 0  9991,2 52682  53.2159 300.6324 0001091  79.2527 280.8588 15.08849474 60613,6917.851,95.437,540.471,538.962,0.0
